CARTOSAT-2B
1 36795U 10035A   18094.44818686  .00000026  00000-0  10581-4 0  9993
2 36795  97.8830 155.3136 0015138 161.8291 198.3463 14.78687540417227
